{
  "type": "FeatureCollection",
  "features": [
    {
      "type": "Feature",
      "properties": {
        "norad_id": 43603,
        "name": "BEIDOU-3 M11 (C25)",
        "group": "beidou",
        "lat": -18.38078141225193,
        "lon": 173.68520541434367,
        "alt_km": 21523.01321644112,
        "timestamp": "2025-12-05T16:54:14.914540+00:00",
        "meta_object_name": "BEIDOU-3 M11 (C25)",
        "meta_object_id": "2018-067B",
        "meta_epoch": "2025-12-04T03:03:44.195904",
        "meta_mean_motion": 1.86227126,
        "meta_eccentricity": 0.0005572,
        "meta_inclination": 54.1804,
        "meta_ra_of_asc_node": 187.6197,
        "meta_arg_of_pericenter": 36.31,
        "meta_mean_anomaly": 323.8191,
        "meta_ephemeris_type": 0,
        "meta_classification_type": "U",
        "meta_norad_cat_id": 43603,
        "meta_element_set_no": 999,
        "meta_rev_at_epoch": 4951,
        "meta_bstar": 0,
        "meta_mean_motion_dot": 1.09e-06,
        "meta_mean_motion_ddot": 0,
        "tle_line1": "1 43603U 18067B   25338.12759486  .00000109  00000+0  00000+0 0  9999",
        "tle_line2": "2 43603  54.1804 187.6197 0005572  36.3100 323.8191  1.86227126 49512"
      },
      "geometry": {
        "type": "Point",
        "coordinates": [
          173.68520541434367,
          -18.38078141225193
        ]
      }
    },
    {
      "type": "Feature",
      "properties": {
        "norad_id": 43622,
        "name": "BEIDOU-3 M13 (C32)",
        "group": "beidou",
        "lat": 5.2293120864208245,
        "lon": 72.53601836096819,
        "alt_km": 21521.682777279042,
        "timestamp": "2025-12-05T16:54:14.914550+00:00",
        "meta_object_name": "BEIDOU-3 M13 (C32)",
        "meta_object_id": "2018-072A",
        "meta_epoch": "2025-12-03T13:07:53.541408",
        "meta_mean_motion": 1.86230692,
        "meta_eccentricity": 0.00056735,
        "meta_inclination": 56.4512,
        "meta_ra_of_asc_node": 69.1249,
        "meta_arg_of_pericenter": 298.6305,
        "meta_mean_anomaly": 61.3164,
        "meta_ephemeris_type": 0,
        "meta_classification_type": "U",
        "meta_norad_cat_id": 43622,
        "meta_element_set_no": 999,
        "meta_rev_at_epoch": 4901,
        "meta_bstar": 0,
        "meta_mean_motion_dot": -5e-07,
        "meta_mean_motion_ddot": 0,
        "tle_line1": "1 43622U 18072A   25337.54714747 -.00000050  00000+0  00000+0 0  9998",
        "tle_line2": "2 43622  56.4512  69.1249 0005673 298.6305  61.3164  1.86230692 49019"
      },
      "geometry": {
        "type": "Point",
        "coordinates": [
          72.53601836096819,
          5.2293120864208245
        ]
      }
    },
    {
      "type": "Feature",
      "properties": {
        "norad_id": 43623,
        "name": "BEIDOU-3 M14 (C33)",
        "group": "beidou",
        "lat": 55.92530668347522,
        "lon": 170.73682068707635,
        "alt_km": 21525.983788687077,
        "timestamp": "2025-12-05T16:54:14.914560+00:00",
        "meta_object_name": "BEIDOU-3 M14 (C33)",
        "meta_object_id": "2018-072B",
        "meta_epoch": "2025-12-02T08:07:43.843296",
        "meta_mean_motion": 1.86230716,
        "meta_eccentricity": 0.00030503,
        "meta_inclination": 56.4518,
        "meta_ra_of_asc_node": 69.1588,
        "meta_arg_of_pericenter": 335.8375,
        "meta_mean_anomaly": 24.1509,
        "meta_ephemeris_type": 0,
        "meta_classification_type": "U",
        "meta_norad_cat_id": 43623,
        "meta_element_set_no": 999,
        "meta_rev_at_epoch": 4898,
        "meta_bstar": 0,
        "meta_mean_motion_dot": -4.6e-07,
        "meta_mean_motion_ddot": 0,
        "tle_line1": "1 43623U 18072B   25336.33870189 -.00000046  00000+0  00000+0 0  9993",
        "tle_line2": "2 43623  56.4518  69.1588 0003050 335.8375  24.1509  1.86230716 48982"
      },
      "geometry": {
        "type": "Point",
        "coordinates": [
          170.73682068707635,
          55.92530668347522
        ]
      }
    },
    {
      "type": "Feature",
      "properties": {
        "norad_id": 43647,
        "name": "BEIDOU-3 M16 (C35)",
        "group": "beidou",
        "lat": -7.633123981937425,
        "lon": -58.789105975604876,
        "alt_km": 21512.0023132657,
        "timestamp": "2025-12-05T16:54:14.914570+00:00",
        "meta_object_name": "BEIDOU-3 M16 (C35)",
        "meta_object_id": "2018-078A",
        "meta_epoch": "2025-12-03T00:48:25.625088",
        "meta_mean_motion": 1.86232114,
        "meta_eccentricity": 0.00069753,
        "meta_inclination": 54.271,
        "meta_ra_of_asc_node": 306.8606,
        "meta_arg_of_pericenter": 18.45,
        "meta_mean_anomaly": 341.5609,
        "meta_ephemeris_type": 0,
        "meta_classification_type": "U",
        "meta_norad_cat_id": 43647,
        "meta_element_set_no": 999,
        "meta_rev_at_epoch": 4850,
        "meta_bstar": 0,
        "meta_mean_motion_dot": -6.5e-07,
        "meta_mean_motion_ddot": 0,
        "tle_line1": "1 43647U 18078A   25337.03362992 -.00000065  00000+0  00000+0 0  9992",
        "tle_line2": "2 43647  54.2710 306.8606 0006975  18.4500 341.5609  1.86232114 48502"
      },
      "geometry": {
        "type": "Point",
        "coordinates": [
          -58.789105975604876,
          -7.633123981937425
        ]
      }
    },
    {
      "type": "Feature",
      "properties": {
        "norad_id": 43648,
        "name": "BEIDOU-3 M15 (C34)",
        "group": "beidou",
        "lat": -53.823810090135886,
        "lon": -153.51676708032954,
        "alt_km": 21537.842436086492,
        "timestamp": "2025-12-05T16:54:14.914580+00:00",
        "meta_object_name": "BEIDOU-3 M15 (C34)",
        "meta_object_id": "2018-078B",
        "meta_epoch": "2025-12-04T18:34:06.240576",
        "meta_mean_motion": 1.86231976,
        "meta_eccentricity": 0.00036768,
        "meta_inclination": 54.2651,
        "meta_ra_of_asc_node": 306.8006,
        "meta_arg_of_pericenter": 17.6668,
        "meta_mean_anomaly": 342.3282,
        "meta_ephemeris_type": 0,
        "meta_classification_type": "U",
        "meta_norad_cat_id": 43648,
        "meta_element_set_no": 999,
        "meta_rev_at_epoch": 4855,
        "meta_bstar": 0,
        "meta_mean_motion_dot": -6.9e-07,
        "meta_mean_motion_ddot": 0,
        "tle_line1": "1 43648U 18078B   25338.77368334 -.00000069  00000+0  00000+0 0  9995",
        "tle_line2": "2 43648  54.2651 306.8006 0003676  17.6668 342.3282  1.86231976 48558"
      },
      "geometry": {
        "type": "Point",
        "coordinates": [
          -153.51676708032954,
          -53.823810090135886
        ]
      }
    },
    {
      "type": "Feature",
      "properties": {
        "norad_id": 43683,
        "name": "BEIDOU-3 G1 (C59)",
        "group": "beidou",
        "lat": 0.2538836725161233,
        "lon": 108.33700488427378,
        "alt_km": 35781.64175084475,
        "timestamp": "2025-12-05T16:54:14.914590+00:00",
        "meta_object_name": "BEIDOU-3 G1 (C59)",
        "meta_object_id": "2018-085A",
        "meta_epoch": "2025-12-05T07:30:56.529792",
        "meta_mean_motion": 1.00273004,
        "meta_eccentricity": 0.00019533,
        "meta_inclination": 2.5878,
        "meta_ra_of_asc_node": 103.1782,
        "meta_arg_of_pericenter": 64.9746,
        "meta_mean_anomaly": 159.0072,
        "meta_ephemeris_type": 0,
        "meta_classification_type": "U",
        "meta_norad_cat_id": 43683,
        "meta_element_set_no": 999,
        "meta_rev_at_epoch": 2611,
        "meta_bstar": 0,
        "meta_mean_motion_dot": -2.66e-06,
        "meta_mean_motion_ddot": 0,
        "tle_line1": "1 43683U 18085A   25339.31315428 -.00000266  00000+0  00000+0 0  9998",
        "tle_line2": "2 43683   2.5878 103.1782 0001953  64.9746 159.0072  1.00273004 26113"
      },
      "geometry": {
        "type": "Point",
        "coordinates": [
          108.33700488427378,
          0.2538836725161233
        ]
      }
    },
    {
      "type": "Feature",
      "properties": {
        "norad_id": 43706,
        "name": "BEIDOU-3 M17 (C36)",
        "group": "beidou",
        "lat": 17.944395788440474,
        "lon": -4.663524354892797,
        "alt_km": 21541.325089774342,
        "timestamp": "2025-12-05T16:54:14.914600+00:00",
        "meta_object_name": "BEIDOU-3 M17 (C36)",
        "meta_object_id": "2018-093A",
        "meta_epoch": "2025-12-03T14:10:37.280064",
        "meta_mean_motion": 1.86228161,
        "meta_eccentricity": 0.00063465,
        "meta_inclination": 54.1727,
        "meta_ra_of_asc_node": 188.9327,
        "meta_arg_of_pericenter": 306.3477,
        "meta_mean_anomaly": 234.3147,
        "meta_ephemeris_type": 0,
        "meta_classification_type": "U",
        "meta_norad_cat_id": 43706,
        "meta_element_set_no": 999,
        "meta_rev_at_epoch": 4789,
        "meta_bstar": 0,
        "meta_mean_motion_dot": 1.14e-06,
        "meta_mean_motion_ddot": 0,
        "tle_line1": "1 43706U 18093A   25337.59070926  .00000114  00000+0  00000+0 0  9993",
        "tle_line2": "2 43706  54.1727 188.9327 0006346 306.3477 234.3147  1.86228161 47892"
      },
      "geometry": {
        "type": "Point",
        "coordinates": [
          -4.663524354892797,
          17.944395788440474
        ]
      }
    }
  ]
}